QIANFAN-49              
1 62250U 24232P   25285.58892096  .00000149  00000+0  21268-3 0  9992
2 62250  89.0017  47.3922 0014278  19.2005 340.9681 13.50978031 59583
QIANFAN-50              
1 62251U 24232Q   25285.61362032  .00000150  00000+0  21432-3 0  9994
2 62251  89.0023  47.3945 0015961  19.7740 340.4026 13.50978614 59616
QIANFAN-51              
1 62252U 24232R   25285.59715865  .00000150  00000+0  21358-3 0  9995
2 62252  89.0017  47.3938 0013597  24.6388 335.5410 13.50975454 59608
QIANFAN-52              
1 62253U 24232S   25285.62592145  .00000167  00000+0  24081-3 0  9998
2 62253  89.0013  47.2668 0015343  15.8920 344.2709 13.50978081 59695
QIANFAN-53              
1 62254U 24232T   25285.60542671  .00000137  00000+0  19427-3 0  9991
2 62254  89.0022  47.3688 0014270  17.5952 342.5691 13.50973731 59655
QIANFAN-54              
1 62255U 24232U   25285.57245917  .00000138  00000+0  19560-3 0  9990
2 62255  89.0012  47.0559 0003547  75.5403 284.6142 13.50975880 91154
QIANFAN-55              
1 62785U 25016A   25285.59850846  .00000057  00000+0  70041-4 0  9996
2 62785  88.9742 109.5260 0017779 159.8192 200.3666 13.50967312 38930
QIANFAN-56              
1 62786U 25016B   25285.61499220  .00000071  00000+0  91080-4 0  9997
2 62786  88.9717 109.3772 0016380 161.6865 198.4880 13.50975518 38981
